<?xml version="1.0" encoding="UTF-8"?>
<gpx creator="StravaGPX" version="1.1" xmlns="http://www.topografix.com/GPX/1/1" xmlns:xsi="http://www.w3.org/2001/XMLSchema-instance" xsi:schemaLocation="http://www.topografix.com/GPX/1/1 http://www.topografix.com/GPX/1/1/gpx.xsd">
 <trk>
  <name>Correr al aire libre</name>
  <type>running</type>
  <trkseg>
   <trkpt lat="-35.4690020" lon="-69.5916290">
    <ele>1415.9</ele>
   </trkpt>
   <trkpt lat="-35.4690710" lon="-69.5918080">
    <ele>1416.2</ele>
   </trkpt>
   <trkpt lat="-35.4691390" lon="-69.5919880">
    <ele>1416.5</ele>
   </trkpt>
   <trkpt lat="-35.4691280" lon="-69.5920940">
    <ele>1416.9</ele>
   </trkpt>
   <trkpt lat="-35.4690280" lon="-69.5921330">
    <ele>1416.8</ele>
   </trkpt>
   <trkpt lat="-35.4689290" lon="-69.5921400">
    <ele>1416.8</ele>
   </trkpt>
   <trkpt lat="-35.4688190" lon="-69.5921550">
    <ele>1416.7</ele>
   </trkpt>
   <trkpt lat="-35.4687190" lon="-69.5921630">
    <ele>1416.6</ele>
   </trkpt>
   <trkpt lat="-35.4685900" lon="-69.5921780">
    <ele>1416.5</ele>
   </trkpt>
   <trkpt lat="-35.4684910" lon="-69.5921860">
    <ele>1416.4</ele>
   </trkpt>
   <trkpt lat="-35.4683530" lon="-69.5922010">
    <ele>1416.3</ele>
   </trkpt>
   <trkpt lat="-35.4682540" lon="-69.5922090">
    <ele>1416.2</ele>
   </trkpt>
   <trkpt lat="-35.4681510" lon="-69.5922160">
    <ele>1416.1</ele>
   </trkpt>
   <trkpt lat="-35.4680480" lon="-69.5922240">
    <ele>1416.1</ele>
   </trkpt>
   <trkpt lat="-35.4679030" lon="-69.5922160">
    <ele>1416.0</ele>
   </trkpt>
   <trkpt lat="-35.4677930" lon="-69.5922010">
    <ele>1415.9</ele>
   </trkpt>
   <trkpt lat="-35.4676820" lon="-69.5922010">
    <ele>1415.8</ele>
   </trkpt>
   <trkpt lat="-35.4675600" lon="-69.5922090">
    <ele>1415.7</ele>
   </trkpt>
   <trkpt lat="-35.4674420" lon="-69.5922010">
    <ele>1415.6</ele>
   </trkpt>
   <trkpt lat="-35.4673310" lon="-69.5922010">
    <ele>1415.5</ele>
   </trkpt>
   <trkpt lat="-35.4672160" lon="-69.5922090">
    <ele>1415.4</ele>
   </trkpt>
   <trkpt lat="-35.4670830" lon="-69.5922160">
    <ele>1415.3</ele>
   </trkpt>
   <trkpt lat="-35.4669690" lon="-69.5922320">
    <ele>1415.2</ele>
   </trkpt>
   <trkpt lat="-35.4668460" lon="-69.5922390">
    <ele>1415.0</ele>
   </trkpt>
   <trkpt lat="-35.4667170" lon="-69.5922390">
    <ele>1414.9</ele>
   </trkpt>
   <trkpt lat="-35.4665950" lon="-69.5922390">
    <ele>1414.9</ele>
   </trkpt>
   <trkpt lat="-35.4664650" lon="-69.5922390">
    <ele>1414.9</ele>
   </trkpt>
   <trkpt lat="-35.4663390" lon="-69.5922470">
    <ele>1414.9</ele>
   </trkpt>
   <trkpt lat="-35.4662280" lon="-69.5922550">
    <ele>1414.9</ele>
   </trkpt>
   <trkpt lat="-35.4661180" lon="-69.5922550">
    <ele>1414.8</ele>
   </trkpt>
   <trkpt lat="-35.4660150" lon="-69.5922850">
    <ele>1414.8</ele>
   </trkpt>
   <trkpt lat="-35.4659350" lon="-69.5923840">
    <ele>1414.8</ele>
   </trkpt>
   <trkpt lat="-35.4659120" lon="-69.5925220">
    <ele>1414.9</ele>
   </trkpt>
   <trkpt lat="-35.4658850" lon="-69.5926360">
    <ele>1415.1</ele>
   </trkpt>
   <trkpt lat="-35.4658740" lon="-69.5927580">
    <ele>1415.2</ele>
   </trkpt>
   <trkpt lat="-35.4658700" lon="-69.5928800">
    <ele>1415.3</ele>
   </trkpt>
   <trkpt lat="-35.4658850" lon="-69.5930100">
    <ele>1415.5</ele>
   </trkpt>
   <trkpt lat="-35.4658700" lon="-69.5931550">
    <ele>1415.6</ele>
   </trkpt>
   <trkpt lat="-35.4658580" lon="-69.5933000">
    <ele>1415.6</ele>
   </trkpt>
   <trkpt lat="-35.4658580" lon="-69.5934600">
    <ele>1415.7</ele>
   </trkpt>
   <trkpt lat="-35.4658550" lon="-69.5935820">
    <ele>1415.8</ele>
   </trkpt>
   <trkpt lat="-35.4658550" lon="-69.5937190">
    <ele>1415.9</ele>
   </trkpt>
   <trkpt lat="-35.4658580" lon="-69.5938570">
    <ele>1416.0</ele>
   </trkpt>
   <trkpt lat="-35.4658510" lon="-69.5939870">
    <ele>1416.1</ele>
   </trkpt>
   <trkpt lat="-35.4658550" lon="-69.5941160">
    <ele>1416.3</ele>
   </trkpt>
   <trkpt lat="-35.4658580" lon="-69.5942380">
    <ele>1416.4</ele>
   </trkpt>
   <trkpt lat="-35.4658620" lon="-69.5943600">
    <ele>1416.5</ele>
   </trkpt>
   <trkpt lat="-35.4658660" lon="-69.5944900">
    <ele>1416.6</ele>
   </trkpt>
   <trkpt lat="-35.4658700" lon="-69.5946200">
    <ele>1416.7</ele>
   </trkpt>
   <trkpt lat="-35.4658740" lon="-69.5947490">
    <ele>1416.7</ele>
   </trkpt>
   <trkpt lat="-35.4658780" lon="-69.5948790">
    <ele>1416.8</ele>
   </trkpt>
   <trkpt lat="-35.4658780" lon="-69.5950160">
    <ele>1416.8</ele>
   </trkpt>
   <trkpt lat="-35.4658810" lon="-69.5951460">
    <ele>1416.9</ele>
   </trkpt>
   <trkpt lat="-35.4658850" lon="-69.5952840">
    <ele>1417.0</ele>
   </trkpt>
   <trkpt lat="-35.4658850" lon="-69.5954210">
    <ele>1417.1</ele>
   </trkpt>
   <trkpt lat="-35.4658890" lon="-69.5955580">
    <ele>1417.2</ele>
   </trkpt>
   <trkpt lat="-35.4658970" lon="-69.5956950">
    <ele>1417.3</ele>
   </trkpt>
   <trkpt lat="-35.4659000" lon="-69.5958400">
    <ele>1417.5</ele>
   </trkpt>
   <trkpt lat="-35.4659120" lon="-69.5959700">
    <ele>1417.6</ele>
   </trkpt>
   <trkpt lat="-35.4659230" lon="-69.5960920">
    <ele>1417.7</ele>
   </trkpt>
   <trkpt lat="-35.4659350" lon="-69.5962140">
    <ele>1417.9</ele>
   </trkpt>
   <trkpt lat="-35.4659420" lon="-69.5963520">
    <ele>1418.0</ele>
   </trkpt>
   <trkpt lat="-35.4659390" lon="-69.5964890">
    <ele>1418.1</ele>
   </trkpt>
   <trkpt lat="-35.4659420" lon="-69.5966260">
    <ele>1418.3</ele>
   </trkpt>
   <trkpt lat="-35.4659460" lon="-69.5967560">
    <ele>1418.5</ele>
   </trkpt>
   <trkpt lat="-35.4659460" lon="-69.5968780">
    <ele>1418.7</ele>
   </trkpt>
   <trkpt lat="-35.4659460" lon="-69.5970380">
    <ele>1419.0</ele>
   </trkpt>
   <trkpt lat="-35.4659500" lon="-69.5971600">
    <ele>1419.2</ele>
   </trkpt>
   <trkpt lat="-35.4659580" lon="-69.5972900">
    <ele>1419.4</ele>
   </trkpt>
   <trkpt lat="-35.4659650" lon="-69.5974200">
    <ele>1419.6</ele>
   </trkpt>
   <trkpt lat="-35.4659730" lon="-69.5975570">
    <ele>1419.7</ele>
   </trkpt>
   <trkpt lat="-35.4659770" lon="-69.5976790">
    <ele>1419.8</ele>
   </trkpt>
   <trkpt lat="-35.4659810" lon="-69.5978160">
    <ele>1420.0</ele>
   </trkpt>
   <trkpt lat="-35.4659810" lon="-69.5979460">
    <ele>1420.1</ele>
   </trkpt>
   <trkpt lat="-35.4659810" lon="-69.5980760">
    <ele>1420.1</ele>
   </trkpt>
   <trkpt lat="-35.4659840" lon="-69.5982060">
    <ele>1420.2</ele>
   </trkpt>
   <trkpt lat="-35.4659880" lon="-69.5983350">
    <ele>1420.3</ele>
   </trkpt>
   <trkpt lat="-35.4660000" lon="-69.5984650">
    <ele>1420.4</ele>
   </trkpt>
   <trkpt lat="-35.4660110" lon="-69.5985950">
    <ele>1420.5</ele>
   </trkpt>
   <trkpt lat="-35.4660190" lon="-69.5987240">
    <ele>1420.6</ele>
   </trkpt>
   <trkpt lat="-35.4660190" lon="-69.5988540">
    <ele>1420.8</ele>
   </trkpt>
   <trkpt lat="-35.4660300" lon="-69.5989760">
    <ele>1420.9</ele>
   </trkpt>
   <trkpt lat="-35.4660420" lon="-69.5990980">
    <ele>1421.0</ele>
   </trkpt>
   <trkpt lat="-35.4660420" lon="-69.5992280">
    <ele>1421.2</ele>
   </trkpt>
   <trkpt lat="-35.4660450" lon="-69.5993650">
    <ele>1421.4</ele>
   </trkpt>
   <trkpt lat="-35.4660490" lon="-69.5995030">
    <ele>1421.5</ele>
   </trkpt>
   <trkpt lat="-35.4660570" lon="-69.5996400">
    <ele>1421.7</ele>
   </trkpt>
   <trkpt lat="-35.4660610" lon="-69.5997700">
    <ele>1421.8</ele>
   </trkpt>
   <trkpt lat="-35.4660640" lon="-69.5999150">
    <ele>1422.0</ele>
   </trkpt>
   <trkpt lat="-35.4660680" lon="-69.6000440">
    <ele>1422.2</ele>
   </trkpt>
   <trkpt lat="-35.4660680" lon="-69.6001660">
    <ele>1422.4</ele>
   </trkpt>
   <trkpt lat="-35.4660680" lon="-69.6003040">
    <ele>1422.6</ele>
   </trkpt>
   <trkpt lat="-35.4660680" lon="-69.6004330">
    <ele>1422.8</ele>
   </trkpt>
   <trkpt lat="-35.4660800" lon="-69.6005710">
    <ele>1423.0</ele>
   </trkpt>
   <trkpt lat="-35.4660870" lon="-69.6007080">
    <ele>1423.2</ele>
   </trkpt>
   <trkpt lat="-35.4660910" lon="-69.6008300">
    <ele>1423.4</ele>
   </trkpt>
   <trkpt lat="-35.4661030" lon="-69.6009450">
    <ele>1423.6</ele>
   </trkpt>
   <trkpt lat="-35.4661060" lon="-69.6010670">
    <ele>1423.8</ele>
   </trkpt>
   <trkpt lat="-35.4661060" lon="-69.6011960">
    <ele>1424.0</ele>
   </trkpt>
   <trkpt lat="-35.4661060" lon="-69.6013110">
    <ele>1424.2</ele>
   </trkpt>
   <trkpt lat="-35.4661140" lon="-69.6014710">
    <ele>1424.4</ele>
   </trkpt>
   <trkpt lat="-35.4661220" lon="-69.6015850">
    <ele>1424.6</ele>
   </trkpt>
   <trkpt lat="-35.4661330" lon="-69.6017150">
    <ele>1424.9</ele>
   </trkpt>
   <trkpt lat="-35.4661330" lon="-69.6018300">
    <ele>1425.1</ele>
   </trkpt>
   <trkpt lat="-35.4660760" lon="-69.6019440">
    <ele>1425.4</ele>
   </trkpt>
   <trkpt lat="-35.4659690" lon="-69.6019360">
    <ele>1425.2</ele>
   </trkpt>
   <trkpt lat="-35.4658280" lon="-69.6019520">
    <ele>1425.0</ele>
   </trkpt>
   <trkpt lat="-35.4657100" lon="-69.6019590">
    <ele>1424.8</ele>
   </trkpt>
   <trkpt lat="-35.4655910" lon="-69.6019670">
    <ele>1424.6</ele>
   </trkpt>
   <trkpt lat="-35.4654770" lon="-69.6019590">
    <ele>1424.4</ele>
   </trkpt>
   <trkpt lat="-35.4653590" lon="-69.6019740">
    <ele>1424.3</ele>
   </trkpt>
   <trkpt lat="-35.4652370" lon="-69.6019820">
    <ele>1424.1</ele>
   </trkpt>
   <trkpt lat="-35.4651070" lon="-69.6019740">
    <ele>1424.0</ele>
   </trkpt>
   <trkpt lat="-35.4649890" lon="-69.6019820">
    <ele>1423.9</ele>
   </trkpt>
   <trkpt lat="-35.4648700" lon="-69.6019900">
    <ele>1423.7</ele>
   </trkpt>
   <trkpt lat="-35.4647480" lon="-69.6019970">
    <ele>1423.6</ele>
   </trkpt>
   <trkpt lat="-35.4646260" lon="-69.6020130">
    <ele>1423.5</ele>
   </trkpt>
   <trkpt lat="-35.4645000" lon="-69.6020200">
    <ele>1423.4</ele>
   </trkpt>
   <trkpt lat="-35.4643750" lon="-69.6020200">
    <ele>1423.2</ele>
   </trkpt>
   <trkpt lat="-35.4642410" lon="-69.6020200">
    <ele>1423.0</ele>
   </trkpt>
   <trkpt lat="-35.4641040" lon="-69.6020280">
    <ele>1422.8</ele>
   </trkpt>
   <trkpt lat="-35.4639820" lon="-69.6020280">
    <ele>1422.7</ele>
   </trkpt>
   <trkpt lat="-35.4638480" lon="-69.6020280">
    <ele>1422.6</ele>
   </trkpt>
   <trkpt lat="-35.4637220" lon="-69.6020280">
    <ele>1422.5</ele>
   </trkpt>
   <trkpt lat="-35.4635960" lon="-69.6020430">
    <ele>1422.3</ele>
   </trkpt>
   <trkpt lat="-35.4634670" lon="-69.6020430">
    <ele>1422.1</ele>
   </trkpt>
   <trkpt lat="-35.4633450" lon="-69.6020510">
    <ele>1422.0</ele>
   </trkpt>
   <trkpt lat="-35.4632300" lon="-69.6020580">
    <ele>1421.8</ele>
   </trkpt>
   <trkpt lat="-35.4631160" lon="-69.6020580">
    <ele>1421.7</ele>
   </trkpt>
   <trkpt lat="-35.4629970" lon="-69.6020580">
    <ele>1421.5</ele>
   </trkpt>
   <trkpt lat="-35.4628640" lon="-69.6020660">
    <ele>1421.4</ele>
   </trkpt>
   <trkpt lat="-35.4627420" lon="-69.6020740">
    <ele>1421.3</ele>
   </trkpt>
   <trkpt lat="-35.4626200" lon="-69.6020810">
    <ele>1421.2</ele>
   </trkpt>
   <trkpt lat="-35.4624900" lon="-69.6020890">
    <ele>1421.0</ele>
   </trkpt>
   <trkpt lat="-35.4623830" lon="-69.6020810">
    <ele>1420.9</ele>
   </trkpt>
   <trkpt lat="-35.4622650" lon="-69.6020810">
    <ele>1420.7</ele>
   </trkpt>
   <trkpt lat="-35.4621540" lon="-69.6020890">
    <ele>1420.5</ele>
   </trkpt>
   <trkpt lat="-35.4620480" lon="-69.6021040">
    <ele>1420.5</ele>
   </trkpt>
   <trkpt lat="-35.4619450" lon="-69.6021120">
    <ele>1420.4</ele>
   </trkpt>
   <trkpt lat="-35.4618300" lon="-69.6021190">
    <ele>1420.4</ele>
   </trkpt>
   <trkpt lat="-35.4617200" lon="-69.6021350">
    <ele>1420.4</ele>
   </trkpt>
   <trkpt lat="-35.4616010" lon="-69.6021420">
    <ele>1420.3</ele>
   </trkpt>
   <trkpt lat="-35.4614790" lon="-69.6021650">
    <ele>1420.2</ele>
   </trkpt>
   <trkpt lat="-35.4613690" lon="-69.6021730">
    <ele>1420.2</ele>
   </trkpt>
   <trkpt lat="-35.4612500" lon="-69.6021730">
    <ele>1420.2</ele>
   </trkpt>
   <trkpt lat="-35.4611280" lon="-69.6021800">
    <ele>1420.1</ele>
   </trkpt>
   <trkpt lat="-35.4610140" lon="-69.6021960">
    <ele>1420.0</ele>
   </trkpt>
   <trkpt lat="-35.4609030" lon="-69.6022110">
    <ele>1419.8</ele>
   </trkpt>
   <trkpt lat="-35.4607890" lon="-69.6022190">
    <ele>1419.7</ele>
   </trkpt>
   <trkpt lat="-35.4606670" lon="-69.6022260">
    <ele>1419.6</ele>
   </trkpt>
   <trkpt lat="-35.4605450" lon="-69.6022340">
    <ele>1419.5</ele>
   </trkpt>
   <trkpt lat="-35.4604150" lon="-69.6022420">
    <ele>1419.4</ele>
   </trkpt>
   <trkpt lat="-35.4602930" lon="-69.6022340">
    <ele>1419.4</ele>
   </trkpt>
   <trkpt lat="-35.4601750" lon="-69.6022340">
    <ele>1419.4</ele>
   </trkpt>
   <trkpt lat="-35.4600600" lon="-69.6022420">
    <ele>1419.3</ele>
   </trkpt>
   <trkpt lat="-35.4599420" lon="-69.6022490">
    <ele>1419.2</ele>
   </trkpt>
   <trkpt lat="-35.4598200" lon="-69.6022640">
    <ele>1419.2</ele>
   </trkpt>
   <trkpt lat="-35.4597050" lon="-69.6022640">
    <ele>1419.2</ele>
   </trkpt>
   <trkpt lat="-35.4595830" lon="-69.6022640">
    <ele>1419.2</ele>
   </trkpt>
   <trkpt lat="-35.4594540" lon="-69.6022640">
    <ele>1419.1</ele>
   </trkpt>
   <trkpt lat="-35.4593280" lon="-69.6022720">
    <ele>1419.0</ele>
   </trkpt>
   <trkpt lat="-35.4592020" lon="-69.6022800">
    <ele>1418.9</ele>
   </trkpt>
   <trkpt lat="-35.4590680" lon="-69.6022870">
    <ele>1418.6</ele>
   </trkpt>
   <trkpt lat="-35.4589270" lon="-69.6022950">
    <ele>1418.4</ele>
   </trkpt>
   <trkpt lat="-35.4587970" lon="-69.6022950">
    <ele>1418.2</ele>
   </trkpt>
   <trkpt lat="-35.4586640" lon="-69.6023030">
    <ele>1418.1</ele>
   </trkpt>
   <trkpt lat="-35.4585460" lon="-69.6023100">
    <ele>1418.0</ele>
   </trkpt>
   <trkpt lat="-35.4584200" lon="-69.6023180">
    <ele>1417.9</ele>
   </trkpt>
   <trkpt lat="-35.4582860" lon="-69.6023250">
    <ele>1417.8</ele>
   </trkpt>
   <trkpt lat="-35.4581570" lon="-69.6023250">
    <ele>1417.7</ele>
   </trkpt>
   <trkpt lat="-35.4580230" lon="-69.6023330">
    <ele>1417.7</ele>
   </trkpt>
   <trkpt lat="-35.4578900" lon="-69.6023480">
    <ele>1417.6</ele>
   </trkpt>
   <trkpt lat="-35.4577560" lon="-69.6023560">
    <ele>1417.5</ele>
   </trkpt>
   <trkpt lat="-35.4576190" lon="-69.6023640">
    <ele>1417.3</ele>
   </trkpt>
   <trkpt lat="-35.4574850" lon="-69.6023790">
    <ele>1417.2</ele>
   </trkpt>
   <trkpt lat="-35.4573520" lon="-69.6023790">
    <ele>1417.0</ele>
   </trkpt>
   <trkpt lat="-35.4572260" lon="-69.6023940">
    <ele>1416.8</ele>
   </trkpt>
   <trkpt lat="-35.4571000" lon="-69.6024170">
    <ele>1416.8</ele>
   </trkpt>
   <trkpt lat="-35.4569700" lon="-69.6024250">
    <ele>1416.8</ele>
   </trkpt>
   <trkpt lat="-35.4568440" lon="-69.6024400">
    <ele>1416.8</ele>
   </trkpt>
   <trkpt lat="-35.4567260" lon="-69.6024320">
    <ele>1416.8</ele>
   </trkpt>
   <trkpt lat="-35.4566000" lon="-69.6024480">
    <ele>1416.7</ele>
   </trkpt>
   <trkpt lat="-35.4564780" lon="-69.6024480">
    <ele>1416.7</ele>
   </trkpt>
   <trkpt lat="-35.4563600" lon="-69.6024480">
    <ele>1416.7</ele>
   </trkpt>
   <trkpt lat="-35.4562260" lon="-69.6024480">
    <ele>1416.7</ele>
   </trkpt>
   <trkpt lat="-35.4560890" lon="-69.6024480">
    <ele>1416.7</ele>
   </trkpt>
   <trkpt lat="-35.4559590" lon="-69.6024550">
    <ele>1416.7</ele>
   </trkpt>
   <trkpt lat="-35.4558370" lon="-69.6024630">
    <ele>1416.6</ele>
   </trkpt>
   <trkpt lat="-35.4557190" lon="-69.6024700">
    <ele>1416.6</ele>
   </trkpt>
   <trkpt lat="-35.4555890" lon="-69.6024780">
    <ele>1416.6</ele>
   </trkpt>
   <trkpt lat="-35.4554630" lon="-69.6024860">
    <ele>1416.6</ele>
   </trkpt>
   <trkpt lat="-35.4553340" lon="-69.6024930">
    <ele>1416.5</ele>
   </trkpt>
   <trkpt lat="-35.4552000" lon="-69.6025010">
    <ele>1416.5</ele>
   </trkpt>
   <trkpt lat="-35.4550590" lon="-69.6025090">
    <ele>1416.4</ele>
   </trkpt>
   <trkpt lat="-35.4549220" lon="-69.6025090">
    <ele>1416.3</ele>
   </trkpt>
   <trkpt lat="-35.4547920" lon="-69.6025240">
    <ele>1416.2</ele>
   </trkpt>
   <trkpt lat="-35.4546590" lon="-69.6025310">
    <ele>1416.2</ele>
   </trkpt>
   <trkpt lat="-35.4545360" lon="-69.6025310">
    <ele>1416.1</ele>
   </trkpt>
   <trkpt lat="-35.4544110" lon="-69.6025390">
    <ele>1416.1</ele>
   </trkpt>
   <trkpt lat="-35.4542730" lon="-69.6025470">
    <ele>1416.1</ele>
   </trkpt>
   <trkpt lat="-35.4541400" lon="-69.6025470">
    <ele>1416.1</ele>
   </trkpt>
   <trkpt lat="-35.4540210" lon="-69.6025540">
    <ele>1416.0</ele>
   </trkpt>
   <trkpt lat="-35.4539030" lon="-69.6025540">
    <ele>1416.0</ele>
   </trkpt>
   <trkpt lat="-35.4537850" lon="-69.6025470">
    <ele>1416.0</ele>
   </trkpt>
   <trkpt lat="-35.4536710" lon="-69.6025470">
    <ele>1416.0</ele>
   </trkpt>
   <trkpt lat="-35.4535710" lon="-69.6025770">
    <ele>1416.1</ele>
   </trkpt>
   <trkpt lat="-35.4534990" lon="-69.6026540">
    <ele>1416.1</ele>
   </trkpt>
   <trkpt lat="-35.4534800" lon="-69.6027680">
    <ele>1416.3</ele>
   </trkpt>
   <trkpt lat="-35.4534870" lon="-69.6028820">
    <ele>1416.4</ele>
   </trkpt>
   <trkpt lat="-35.4535100" lon="-69.6030040">
    <ele>1417.0</ele>
   </trkpt>
   <trkpt lat="-35.4535330" lon="-69.6031270">
    <ele>1417.7</ele>
   </trkpt>
   <trkpt lat="-35.4535560" lon="-69.6032490">
    <ele>1418.5</ele>
   </trkpt>
   <trkpt lat="-35.4535520" lon="-69.6033710">
    <ele>1419.0</ele>
   </trkpt>
   <trkpt lat="-35.4534490" lon="-69.6034620">
    <ele>1419.0</ele>
   </trkpt>
   <trkpt lat="-35.4533580" lon="-69.6034550">
    <ele>1419.0</ele>
   </trkpt>
   <trkpt lat="-35.4532620" lon="-69.6034700">
    <ele>1419.0</ele>
   </trkpt>
   <trkpt lat="-35.4531560" lon="-69.6034770">
    <ele>1418.8</ele>
   </trkpt>
   <trkpt lat="-35.4530410" lon="-69.6034850">
    <ele>1418.5</ele>
   </trkpt>
   <trkpt lat="-35.4529300" lon="-69.6034850">
    <ele>1418.2</ele>
   </trkpt>
   <trkpt lat="-35.4528120" lon="-69.6034930">
    <ele>1417.8</ele>
   </trkpt>
   <trkpt lat="-35.4526860" lon="-69.6035000">
    <ele>1417.4</ele>
   </trkpt>
   <trkpt lat="-35.4525640" lon="-69.6035080">
    <ele>1416.9</ele>
   </trkpt>
   <trkpt lat="-35.4524270" lon="-69.6035160">
    <ele>1416.5</ele>
   </trkpt>
   <trkpt lat="-35.4522930" lon="-69.6035230">
    <ele>1416.2</ele>
   </trkpt>
   <trkpt lat="-35.4521600" lon="-69.6035310">
    <ele>1415.9</ele>
   </trkpt>
   <trkpt lat="-35.4520340" lon="-69.6035390">
    <ele>1415.6</ele>
   </trkpt>
   <trkpt lat="-35.4519120" lon="-69.6035390">
    <ele>1415.3</ele>
   </trkpt>
   <trkpt lat="-35.4517970" lon="-69.6035310">
    <ele>1415.0</ele>
   </trkpt>
   <trkpt lat="-35.4516940" lon="-69.6035390">
    <ele>1414.9</ele>
   </trkpt>
   <trkpt lat="-35.4516070" lon="-69.6035920">
    <ele>1414.8</ele>
   </trkpt>
   <trkpt lat="-35.4515530" lon="-69.6036910">
    <ele>1414.8</ele>
   </trkpt>
   <trkpt lat="-35.4514960" lon="-69.6037980">
    <ele>1414.7</ele>
   </trkpt>
   <trkpt lat="-35.4514120" lon="-69.6038740">
    <ele>1414.7</ele>
   </trkpt>
   <trkpt lat="-35.4513130" lon="-69.6039200">
    <ele>1414.4</ele>
   </trkpt>
   <trkpt lat="-35.4511990" lon="-69.6039350">
    <ele>1414.1</ele>
   </trkpt>
   <trkpt lat="-35.4510800" lon="-69.6039660">
    <ele>1413.7</ele>
   </trkpt>
   <trkpt lat="-35.4509660" lon="-69.6039960">
    <ele>1413.4</ele>
   </trkpt>
   <trkpt lat="-35.4508510" lon="-69.6040270">
    <ele>1413.0</ele>
   </trkpt>
   <trkpt lat="-35.4507450" lon="-69.6040500">
    <ele>1412.7</ele>
   </trkpt>
   <trkpt lat="-35.4506260" lon="-69.6040800">
    <ele>1412.5</ele>
   </trkpt>
   <trkpt lat="-35.4505200" lon="-69.6041180">
    <ele>1412.2</ele>
   </trkpt>
   <trkpt lat="-35.4504050" lon="-69.6041560">
    <ele>1411.9</ele>
   </trkpt>
   <trkpt lat="-35.4502870" lon="-69.6041950">
    <ele>1411.6</ele>
   </trkpt>
   <trkpt lat="-35.4501650" lon="-69.6042330">
    <ele>1411.3</ele>
   </trkpt>
   <trkpt lat="-35.4500500" lon="-69.6042710">
    <ele>1411.1</ele>
   </trkpt>
   <trkpt lat="-35.4499470" lon="-69.6042940">
    <ele>1411.0</ele>
   </trkpt>
   <trkpt lat="-35.4498600" lon="-69.6043320">
    <ele>1411.0</ele>
   </trkpt>
   <trkpt lat="-35.4497720" lon="-69.6044010">
    <ele>1411.0</ele>
   </trkpt>
   <trkpt lat="-35.4496840" lon="-69.6044770">
    <ele>1411.1</ele>
   </trkpt>
   <trkpt lat="-35.4495770" lon="-69.6045300">
    <ele>1411.2</ele>
   </trkpt>
   <trkpt lat="-35.4494740" lon="-69.6046300">
    <ele>1411.3</ele>
   </trkpt>
   <trkpt lat="-35.4493710" lon="-69.6047130">
    <ele>1411.5</ele>
   </trkpt>
   <trkpt lat="-35.4492840" lon="-69.6047900">
    <ele>1411.6</ele>
   </trkpt>
   <trkpt lat="-35.4491880" lon="-69.6048430">
    <ele>1411.6</ele>
   </trkpt>
   <trkpt lat="-35.4490660" lon="-69.6048510">
    <ele>1411.6</ele>
   </trkpt>
   <trkpt lat="-35.4489360" lon="-69.6048580">
    <ele>1411.4</ele>
   </trkpt>
   <trkpt lat="-35.4488450" lon="-69.6048740">
    <ele>1411.2</ele>
   </trkpt>
   <trkpt lat="-35.4487420" lon="-69.6048660">
    <ele>1411.0</ele>
   </trkpt>
   <trkpt lat="-35.4486580" lon="-69.6048130">
    <ele>1411.0</ele>
   </trkpt>
   <trkpt lat="-35.4485630" lon="-69.6047670">
    <ele>1410.9</ele>
   </trkpt>
   <trkpt lat="-35.4484560" lon="-69.6047360">
    <ele>1409.9</ele>
   </trkpt>
   <trkpt lat="-35.4483600" lon="-69.6047130">
    <ele>1409.9</ele>
   </trkpt>
   <trkpt lat="-35.4482840" lon="-69.6046450">
    <ele>1409.9</ele>
   </trkpt>
   <trkpt lat="-35.4482150" lon="-69.6045460">
    <ele>1409.3</ele>
   </trkpt>
   <trkpt lat="-35.4481430" lon="-69.6044310">
    <ele>1409.0</ele>
   </trkpt>
   <trkpt lat="-35.4481240" lon="-69.6042940">
    <ele>1409.0</ele>
   </trkpt>
   <trkpt lat="-35.4481580" lon="-69.6041870">
    <ele>1409.0</ele>
   </trkpt>
   <trkpt lat="-35.4481580" lon="-69.6040650">
    <ele>1409.0</ele>
   </trkpt>
   <trkpt lat="-35.4480970" lon="-69.6039510">
    <ele>1408.9</ele>
   </trkpt>
   <trkpt lat="-35.4480020" lon="-69.6038590">
    <ele>1409.1</ele>
   </trkpt>
   <trkpt lat="-35.4479640" lon="-69.6037520">
    <ele>1409.4</ele>
   </trkpt>
   <trkpt lat="-35.4479370" lon="-69.6036220">
    <ele>1409.6</ele>
   </trkpt>
   <trkpt lat="-35.4478950" lon="-69.6035000">
    <ele>1409.3</ele>
   </trkpt>
   <trkpt lat="-35.4478490" lon="-69.6033710">
    <ele>1408.9</ele>
   </trkpt>
   <trkpt lat="-35.4478070" lon="-69.6032710">
    <ele>1408.9</ele>
   </trkpt>
   <trkpt lat="-35.4477310" lon="-69.6031800">
    <ele>1408.9</ele>
   </trkpt>
   <trkpt lat="-35.4477010" lon="-69.6030580">
    <ele>1409.0</ele>
   </trkpt>
   <trkpt lat="-35.4476850" lon="-69.6029050">
    <ele>1409.0</ele>
   </trkpt>
   <trkpt lat="-35.4476810" lon="-69.6027910">
    <ele>1409.0</ele>
   </trkpt>
   <trkpt lat="-35.4476810" lon="-69.6026760">
    <ele>1408.8</ele>
   </trkpt>
   <trkpt lat="-35.4476660" lon="-69.6025390">
    <ele>1408.6</ele>
   </trkpt>
   <trkpt lat="-35.4476620" lon="-69.6024090">
    <ele>1408.4</ele>
   </trkpt>
   <trkpt lat="-35.4476810" lon="-69.6022720">
    <ele>1408.9</ele>
   </trkpt>
   <trkpt lat="-35.4477010" lon="-69.6021270">
    <ele>1409.5</ele>
   </trkpt>
   <trkpt lat="-35.4477200" lon="-69.6019740">
    <ele>1410.0</ele>
   </trkpt>
   <trkpt lat="-35.4476620" lon="-69.6018520">
    <ele>1409.4</ele>
   </trkpt>
   <trkpt lat="-35.4475820" lon="-69.6017840">
    <ele>1409.6</ele>
   </trkpt>
   <trkpt lat="-35.4474950" lon="-69.6017070">
    <ele>1410.2</ele>
   </trkpt>
   <trkpt lat="-35.4474180" lon="-69.6016240">
    <ele>1409.9</ele>
   </trkpt>
   <trkpt lat="-35.4473380" lon="-69.6015550">
    <ele>1410.0</ele>
   </trkpt>
   <trkpt lat="-35.4472200" lon="-69.6014630">
    <ele>1409.5</ele>
   </trkpt>
   <trkpt lat="-35.4471400" lon="-69.6013790">
    <ele>1410.3</ele>
   </trkpt>
   <trkpt lat="-35.4470630" lon="-69.6013030">
    <ele>1410.9</ele>
   </trkpt>
   <trkpt lat="-35.4469870" lon="-69.6011960">
    <ele>1411.0</ele>
   </trkpt>
   <trkpt lat="-35.4469180" lon="-69.6010970">
    <ele>1410.9</ele>
   </trkpt>
   <trkpt lat="-35.4468460" lon="-69.6010060">
    <ele>1410.6</ele>
   </trkpt>
   <trkpt lat="-35.4467620" lon="-69.6009220">
    <ele>1410.0</ele>
   </trkpt>
   <trkpt lat="-35.4466930" lon="-69.6008450">
    <ele>1409.5</ele>
   </trkpt>
   <trkpt lat="-35.4466320" lon="-69.6007160">
    <ele>1409.0</ele>
   </trkpt>
   <trkpt lat="-35.4465830" lon="-69.6006010">
    <ele>1409.0</ele>
   </trkpt>
   <trkpt lat="-35.4466320" lon="-69.6005020">
    <ele>1408.8</ele>
   </trkpt>
   <trkpt lat="-35.4467240" lon="-69.6004330">
    <ele>1408.2</ele>
   </trkpt>
   <trkpt lat="-35.4468270" lon="-69.6003420">
    <ele>1408.4</ele>
   </trkpt>
   <trkpt lat="-35.4469180" lon="-69.6002430">
    <ele>1408.4</ele>
   </trkpt>
   <trkpt lat="-35.4470060" lon="-69.6001360">
    <ele>1408.4</ele>
   </trkpt>
   <trkpt lat="-35.4470980" lon="-69.6000600">
    <ele>1408.0</ele>
   </trkpt>
   <trkpt lat="-35.4472120" lon="-69.6000060">
    <ele>1407.8</ele>
   </trkpt>
   <trkpt lat="-35.4473190" lon="-69.5999370">
    <ele>1407.4</ele>
   </trkpt>
   <trkpt lat="-35.4474030" lon="-69.5998380">
    <ele>1407.0</ele>
   </trkpt>
   <trkpt lat="-35.4474720" lon="-69.5997310">
    <ele>1406.3</ele>
   </trkpt>
   <trkpt lat="-35.4475480" lon="-69.5996250">
    <ele>1404.9</ele>
   </trkpt>
   <trkpt lat="-35.4476170" lon="-69.5995180">
    <ele>1404.9</ele>
   </trkpt>
   <trkpt lat="-35.4476740" lon="-69.5994260">
    <ele>1404.8</ele>
   </trkpt>
   <trkpt lat="-35.4477500" lon="-69.5993420">
    <ele>1404.8</ele>
   </trkpt>
   <trkpt lat="-35.4478300" lon="-69.5992890">
    <ele>1405.6</ele>
   </trkpt>
   <trkpt lat="-35.4479330" lon="-69.5992580">
    <ele>1406.3</ele>
   </trkpt>
   <trkpt lat="-35.4480090" lon="-69.5990680">
    <ele>1406.2</ele>
   </trkpt>
   <trkpt lat="-35.4479830" lon="-69.5989380">
    <ele>1405.8</ele>
   </trkpt>
   <trkpt lat="-35.4480320" lon="-69.5988310">
    <ele>1405.9</ele>
   </trkpt>
   <trkpt lat="-35.4480710" lon="-69.5987090">
    <ele>1405.2</ele>
   </trkpt>
   <trkpt lat="-35.4481120" lon="-69.5985950">
    <ele>1404.5</ele>
   </trkpt>
   <trkpt lat="-35.4481660" lon="-69.5985030">
    <ele>1404.8</ele>
   </trkpt>
   <trkpt lat="-35.4481930" lon="-69.5983810">
    <ele>1406.0</ele>
   </trkpt>
   <trkpt lat="-35.4482650" lon="-69.5982890">
    <ele>1406.6</ele>
   </trkpt>
   <trkpt lat="-35.4483180" lon="-69.5981750">
    <ele>1406.3</ele>
   </trkpt>
   <trkpt lat="-35.4483720" lon="-69.5980610">
    <ele>1406.4</ele>
   </trkpt>
   <trkpt lat="-35.4484210" lon="-69.5979390">
    <ele>1406.6</ele>
   </trkpt>
   <trkpt lat="-35.4484750" lon="-69.5978090">
    <ele>1406.2</ele>
   </trkpt>
   <trkpt lat="-35.4484980" lon="-69.5976870">
    <ele>1406.0</ele>
   </trkpt>
   <trkpt lat="-35.4485090" lon="-69.5975570">
    <ele>1405.7</ele>
   </trkpt>
   <trkpt lat="-35.4484830" lon="-69.5976720">
    <ele>1406.0</ele>
   </trkpt>
   <trkpt lat="-35.4485820" lon="-69.5976330">
    <ele>1405.8</ele>
   </trkpt>
   <trkpt lat="-35.4486690" lon="-69.5975190">
    <ele>1405.8</ele>
   </trkpt>
   <trkpt lat="-35.4487340" lon="-69.5973820">
    <ele>1405.8</ele>
   </trkpt>
   <trkpt lat="-35.4487530" lon="-69.5972290">
    <ele>1405.8</ele>
   </trkpt>
   <trkpt lat="-35.4487720" lon="-69.5970760">
    <ele>1405.8</ele>
   </trkpt>
   <trkpt lat="-35.4487840" lon="-69.5969390">
    <ele>1405.8</ele>
   </trkpt>
   <trkpt lat="-35.4488140" lon="-69.5967790">
    <ele>1406.0</ele>
   </trkpt>
   <trkpt lat="-35.4488530" lon="-69.5966190">
    <ele>1405.6</ele>
   </trkpt>
   <trkpt lat="-35.4488600" lon="-69.5965040">
    <ele>1406.3</ele>
   </trkpt>
   <trkpt lat="-35.4488720" lon="-69.5963900">
    <ele>1406.9</ele>
   </trkpt>
   <trkpt lat="-35.4488980" lon="-69.5962450">
    <ele>1407.0</ele>
   </trkpt>
   <trkpt lat="-35.4489360" lon="-69.5961000">
    <ele>1406.9</ele>
   </trkpt>
   <trkpt lat="-35.4489590" lon="-69.5959930">
    <ele>1406.8</ele>
   </trkpt>
   <trkpt lat="-35.4489820" lon="-69.5958400">
    <ele>1406.9</ele>
   </trkpt>
   <trkpt lat="-35.4489970" lon="-69.5956880">
    <ele>1406.6</ele>
   </trkpt>
   <trkpt lat="-35.4490130" lon="-69.5955280">
    <ele>1405.9</ele>
   </trkpt>
   <trkpt lat="-35.4490240" lon="-69.5953900">
    <ele>1406.8</ele>
   </trkpt>
   <trkpt lat="-35.4490470" lon="-69.5952610">
    <ele>1406.6</ele>
   </trkpt>
   <trkpt lat="-35.4490740" lon="-69.5951000">
    <ele>1405.7</ele>
   </trkpt>
   <trkpt lat="-35.4490660" lon="-69.5949400">
    <ele>1405.1</ele>
   </trkpt>
   <trkpt lat="-35.4490810" lon="-69.5948180">
    <ele>1405.1</ele>
   </trkpt>
   <trkpt lat="-35.4491040" lon="-69.5946580">
    <ele>1405.4</ele>
   </trkpt>
   <trkpt lat="-35.4491120" lon="-69.5944900">
    <ele>1404.2</ele>
   </trkpt>
   <trkpt lat="-35.4491350" lon="-69.5943830">
    <ele>1404.0</ele>
   </trkpt>
   <trkpt lat="-35.4491620" lon="-69.5942310">
    <ele>1403.9</ele>
   </trkpt>
   <trkpt lat="-35.4491840" lon="-69.5940780">
    <ele>1404.4</ele>
   </trkpt>
   <trkpt lat="-35.4491960" lon="-69.5939640">
    <ele>1404.6</ele>
   </trkpt>
   <trkpt lat="-35.4492070" lon="-69.5938420">
    <ele>1405.3</ele>
   </trkpt>
   <trkpt lat="-35.4492150" lon="-69.5936890">
    <ele>1405.7</ele>
   </trkpt>
   <trkpt lat="-35.4492420" lon="-69.5935360">
    <ele>1406.6</ele>
   </trkpt>
   <trkpt lat="-35.4492610" lon="-69.5934220">
    <ele>1406.7</ele>
   </trkpt>
   <trkpt lat="-35.4492680" lon="-69.5932770">
    <ele>1406.5</ele>
   </trkpt>
   <trkpt lat="-35.4492840" lon="-69.5931400">
    <ele>1406.9</ele>
   </trkpt>
   <trkpt lat="-35.4492800" lon="-69.5929950">
    <ele>1406.9</ele>
   </trkpt>
   <trkpt lat="-35.4492760" lon="-69.5928650">
    <ele>1406.9</ele>
   </trkpt>
   <trkpt lat="-35.4492910" lon="-69.5927120">
    <ele>1406.2</ele>
   </trkpt>
   <trkpt lat="-35.4493030" lon="-69.5925450">
    <ele>1405.1</ele>
   </trkpt>
   <trkpt lat="-35.4493060" lon="-69.5924220">
    <ele>1404.7</ele>
   </trkpt>
   <trkpt lat="-35.4493030" lon="-69.5922930">
    <ele>1404.9</ele>
   </trkpt>
   <trkpt lat="-35.4492990" lon="-69.5921780">
    <ele>1405.0</ele>
   </trkpt>
   <trkpt lat="-35.4492910" lon="-69.5920640">
    <ele>1404.5</ele>
   </trkpt>
   <trkpt lat="-35.4492840" lon="-69.5919490">
    <ele>1403.8</ele>
   </trkpt>
   <trkpt lat="-35.4492840" lon="-69.5918270">
    <ele>1403.8</ele>
   </trkpt>
   <trkpt lat="-35.4492840" lon="-69.5916900">
    <ele>1403.7</ele>
   </trkpt>
   <trkpt lat="-35.4492870" lon="-69.5915680">
    <ele>1403.9</ele>
   </trkpt>
   <trkpt lat="-35.4492950" lon="-69.5914610">
    <ele>1404.7</ele>
   </trkpt>
   <trkpt lat="-35.4492840" lon="-69.5913010">
    <ele>1405.7</ele>
   </trkpt>
   <trkpt lat="-35.4492680" lon="-69.5911410">
    <ele>1406.3</ele>
   </trkpt>
   <trkpt lat="-35.4492420" lon="-69.5909810">
    <ele>1406.8</ele>
   </trkpt>
   <trkpt lat="-35.4492190" lon="-69.5908360">
    <ele>1406.1</ele>
   </trkpt>
   <trkpt lat="-35.4491880" lon="-69.5906830">
    <ele>1405.5</ele>
   </trkpt>
   <trkpt lat="-35.4491810" lon="-69.5905460">
    <ele>1405.0</ele>
   </trkpt>
   <trkpt lat="-35.4491620" lon="-69.5904080">
    <ele>1404.0</ele>
   </trkpt>
   <trkpt lat="-35.4491500" lon="-69.5902860">
    <ele>1403.2</ele>
   </trkpt>
   <trkpt lat="-35.4491350" lon="-69.5901640">
    <ele>1402.8</ele>
   </trkpt>
   <trkpt lat="-35.4491080" lon="-69.5900500">
    <ele>1402.4</ele>
   </trkpt>
   <trkpt lat="-35.4490930" lon="-69.5899350">
    <ele>1401.9</ele>
   </trkpt>
   <trkpt lat="-35.4490780" lon="-69.5898210">
    <ele>1402.0</ele>
   </trkpt>
   <trkpt lat="-35.4490620" lon="-69.5896990">
    <ele>1402.1</ele>
   </trkpt>
   <trkpt lat="-35.4490590" lon="-69.5895690">
    <ele>1401.9</ele>
   </trkpt>
   <trkpt lat="-35.4490390" lon="-69.5894550">
    <ele>1402.5</ele>
   </trkpt>
   <trkpt lat="-35.4490320" lon="-69.5893250">
    <ele>1403.5</ele>
   </trkpt>
   <trkpt lat="-35.4490130" lon="-69.5891950">
    <ele>1403.8</ele>
   </trkpt>
   <trkpt lat="-35.4489970" lon="-69.5890660">
    <ele>1403.8</ele>
   </trkpt>
   <trkpt lat="-35.4489860" lon="-69.5889430">
    <ele>1403.6</ele>
   </trkpt>
   <trkpt lat="-35.4489820" lon="-69.5888140">
    <ele>1403.6</ele>
   </trkpt>
   <trkpt lat="-35.4489670" lon="-69.5886690">
    <ele>1403.7</ele>
   </trkpt>
   <trkpt lat="-35.4489440" lon="-69.5885310">
    <ele>1403.8</ele>
   </trkpt>
   <trkpt lat="-35.4489290" lon="-69.5883940">
    <ele>1403.2</ele>
   </trkpt>
   <trkpt lat="-35.4489170" lon="-69.5882570">
    <ele>1402.2</ele>
   </trkpt>
   <trkpt lat="-35.4489170" lon="-69.5881120">
    <ele>1402.1</ele>
   </trkpt>
   <trkpt lat="-35.4489360" lon="-69.5879670">
    <ele>1402.4</ele>
   </trkpt>
   <trkpt lat="-35.4489820" lon="-69.5878220">
    <ele>1401.7</ele>
   </trkpt>
   <trkpt lat="-35.4490280" lon="-69.5877000">
    <ele>1401.6</ele>
   </trkpt>
   <trkpt lat="-35.4490700" lon="-69.5875780">
    <ele>1401.7</ele>
   </trkpt>
   <trkpt lat="-35.4491200" lon="-69.5874630">
    <ele>1401.7</ele>
   </trkpt>
   <trkpt lat="-35.4491650" lon="-69.5873410">
    <ele>1402.7</ele>
   </trkpt>
   <trkpt lat="-35.4492030" lon="-69.5872190">
    <ele>1402.9</ele>
   </trkpt>
   <trkpt lat="-35.4492380" lon="-69.5870970">
    <ele>1402.2</ele>
   </trkpt>
   <trkpt lat="-35.4492650" lon="-69.5869670">
    <ele>1401.5</ele>
   </trkpt>
   <trkpt lat="-35.4492610" lon="-69.5868380">
    <ele>1401.7</ele>
   </trkpt>
   <trkpt lat="-35.4492530" lon="-69.5867080">
    <ele>1402.5</ele>
   </trkpt>
   <trkpt lat="-35.4492380" lon="-69.5865860">
    <ele>1402.7</ele>
   </trkpt>
   <trkpt lat="-35.4492300" lon="-69.5864720">
    <ele>1402.5</ele>
   </trkpt>
   <trkpt lat="-35.4492260" lon="-69.5863340">
    <ele>1402.8</ele>
   </trkpt>
   <trkpt lat="-35.4492950" lon="-69.5862660">
    <ele>1403.9</ele>
   </trkpt>
   <trkpt lat="-35.4494090" lon="-69.5862430">
    <ele>1403.9</ele>
   </trkpt>
   <trkpt lat="-35.4495010" lon="-69.5862500">
    <ele>1403.9</ele>
   </trkpt>
   <trkpt lat="-35.4496350" lon="-69.5862430">
    <ele>1404.0</ele>
   </trkpt>
   <trkpt lat="-35.4497220" lon="-69.5862350">
    <ele>1404.0</ele>
   </trkpt>
   <trkpt lat="-35.4498140" lon="-69.5862350">
    <ele>1404.0</ele>
   </trkpt>
   <trkpt lat="-35.4499090" lon="-69.5862270">
    <ele>1404.0</ele>
   </trkpt>
   <trkpt lat="-35.4500240" lon="-69.5862200">
    <ele>1404.0</ele>
   </trkpt>
   <trkpt lat="-35.4501270" lon="-69.5862200">
    <ele>1404.1</ele>
   </trkpt>
   <trkpt lat="-35.4502370" lon="-69.5862270">
    <ele>1404.1</ele>
   </trkpt>
   <trkpt lat="-35.4503440" lon="-69.5862200">
    <ele>1404.2</ele>
   </trkpt>
   <trkpt lat="-35.4504590" lon="-69.5862050">
    <ele>1404.2</ele>
   </trkpt>
   <trkpt lat="-35.4505650" lon="-69.5861970">
    <ele>1404.2</ele>
   </trkpt>
   <trkpt lat="-35.4506800" lon="-69.5861890">
    <ele>1404.3</ele>
   </trkpt>
   <trkpt lat="-35.4507750" lon="-69.5861740">
    <ele>1404.3</ele>
   </trkpt>
   <trkpt lat="-35.4508740" lon="-69.5861820">
    <ele>1404.3</ele>
   </trkpt>
   <trkpt lat="-35.4509770" lon="-69.5861890">
    <ele>1404.4</ele>
   </trkpt>
   <trkpt lat="-35.4510800" lon="-69.5861890">
    <ele>1404.4</ele>
   </trkpt>
   <trkpt lat="-35.4511990" lon="-69.5861890">
    <ele>1404.5</ele>
   </trkpt>
   <trkpt lat="-35.4513130" lon="-69.5861890">
    <ele>1404.5</ele>
   </trkpt>
   <trkpt lat="-35.4514270" lon="-69.5861740">
    <ele>1404.6</ele>
   </trkpt>
   <trkpt lat="-35.4515420" lon="-69.5861660">
    <ele>1404.6</ele>
   </trkpt>
   <trkpt lat="-35.4516450" lon="-69.5861660">
    <ele>1404.6</ele>
   </trkpt>
   <trkpt lat="-35.4517520" lon="-69.5861660">
    <ele>1404.7</ele>
   </trkpt>
   <trkpt lat="-35.4518660" lon="-69.5861590">
    <ele>1404.7</ele>
   </trkpt>
   <trkpt lat="-35.4519770" lon="-69.5861590">
    <ele>1404.7</ele>
   </trkpt>
   <trkpt lat="-35.4520950" lon="-69.5861660">
    <ele>1404.8</ele>
   </trkpt>
   <trkpt lat="-35.4522170" lon="-69.5861660">
    <ele>1404.8</ele>
   </trkpt>
   <trkpt lat="-35.4523470" lon="-69.5861590">
    <ele>1404.9</ele>
   </trkpt>
   <trkpt lat="-35.4524770" lon="-69.5861430">
    <ele>1404.9</ele>
   </trkpt>
   <trkpt lat="-35.4525990" lon="-69.5861510">
    <ele>1405.0</ele>
   </trkpt>
   <trkpt lat="-35.4527280" lon="-69.5861510">
    <ele>1405.0</ele>
   </trkpt>
   <trkpt lat="-35.4528540" lon="-69.5861430">
    <ele>1405.1</ele>
   </trkpt>
   <trkpt lat="-35.4529840" lon="-69.5861360">
    <ele>1405.1</ele>
   </trkpt>
   <trkpt lat="-35.4531060" lon="-69.5861360">
    <ele>1405.2</ele>
   </trkpt>
   <trkpt lat="-35.4532280" lon="-69.5861280">
    <ele>1405.3</ele>
   </trkpt>
   <trkpt lat="-35.4533460" lon="-69.5861210">
    <ele>1405.3</ele>
   </trkpt>
   <trkpt lat="-35.4534610" lon="-69.5861130">
    <ele>1405.3</ele>
   </trkpt>
   <trkpt lat="-35.4535790" lon="-69.5861050">
    <ele>1405.4</ele>
   </trkpt>
   <trkpt lat="-35.4536970" lon="-69.5861050">
    <ele>1405.4</ele>
   </trkpt>
   <trkpt lat="-35.4538270" lon="-69.5861130">
    <ele>1405.5</ele>
   </trkpt>
   <trkpt lat="-35.4539490" lon="-69.5861130">
    <ele>1405.5</ele>
   </trkpt>
   <trkpt lat="-35.4540710" lon="-69.5861050">
    <ele>1405.5</ele>
   </trkpt>
   <trkpt lat="-35.4541930" lon="-69.5860980">
    <ele>1405.6</ele>
   </trkpt>
   <trkpt lat="-35.4543080" lon="-69.5860900">
    <ele>1405.6</ele>
   </trkpt>
   <trkpt lat="-35.4544330" lon="-69.5860900">
    <ele>1405.6</ele>
   </trkpt>
   <trkpt lat="-35.4545560" lon="-69.5860900">
    <ele>1405.6</ele>
   </trkpt>
   <trkpt lat="-35.4546740" lon="-69.5860750">
    <ele>1405.6</ele>
   </trkpt>
   <trkpt lat="-35.4548000" lon="-69.5860750">
    <ele>1405.6</ele>
   </trkpt>
   <trkpt lat="-35.4549220" lon="-69.5860750">
    <ele>1405.7</ele>
   </trkpt>
   <trkpt lat="-35.4550400" lon="-69.5860750">
    <ele>1405.7</ele>
   </trkpt>
   <trkpt lat="-35.4551660" lon="-69.5860600">
    <ele>1405.8</ele>
   </trkpt>
   <trkpt lat="-35.4552920" lon="-69.5860600">
    <ele>1405.8</ele>
   </trkpt>
   <trkpt lat="-35.4554100" lon="-69.5860520">
    <ele>1405.8</ele>
   </trkpt>
   <trkpt lat="-35.4555400" lon="-69.5860600">
    <ele>1405.8</ele>
   </trkpt>
   <trkpt lat="-35.4556660" lon="-69.5860520">
    <ele>1405.9</ele>
   </trkpt>
   <trkpt lat="-35.4557910" lon="-69.5860520">
    <ele>1405.9</ele>
   </trkpt>
   <trkpt lat="-35.4559170" lon="-69.5860440">
    <ele>1405.9</ele>
   </trkpt>
   <trkpt lat="-35.4560430" lon="-69.5860370">
    <ele>1405.9</ele>
   </trkpt>
   <trkpt lat="-35.4561730" lon="-69.5860290">
    <ele>1405.9</ele>
   </trkpt>
   <trkpt lat="-35.4562910" lon="-69.5860290">
    <ele>1405.9</ele>
   </trkpt>
   <trkpt lat="-35.4564170" lon="-69.5860370">
    <ele>1406.0</ele>
   </trkpt>
   <trkpt lat="-35.4565470" lon="-69.5860290">
    <ele>1406.0</ele>
   </trkpt>
   <trkpt lat="-35.4566880" lon="-69.5860290">
    <ele>1406.0</ele>
   </trkpt>
   <trkpt lat="-35.4568210" lon="-69.5860290">
    <ele>1406.0</ele>
   </trkpt>
   <trkpt lat="-35.4569550" lon="-69.5860210">
    <ele>1406.0</ele>
   </trkpt>
   <trkpt lat="-35.4570880" lon="-69.5860060">
    <ele>1406.0</ele>
   </trkpt>
   <trkpt lat="-35.4572300" lon="-69.5859910">
    <ele>1406.0</ele>
   </trkpt>
   <trkpt lat="-35.4573630" lon="-69.5859830">
    <ele>1406.1</ele>
   </trkpt>
   <trkpt lat="-35.4574970" lon="-69.5859760">
    <ele>1406.2</ele>
   </trkpt>
   <trkpt lat="-35.4576380" lon="-69.5859760">
    <ele>1406.3</ele>
   </trkpt>
   <trkpt lat="-35.4577710" lon="-69.5859760">
    <ele>1406.3</ele>
   </trkpt>
   <trkpt lat="-35.4579010" lon="-69.5859760">
    <ele>1406.4</ele>
   </trkpt>
   <trkpt lat="-35.4580380" lon="-69.5859600">
    <ele>1406.5</ele>
   </trkpt>
   <trkpt lat="-35.4581640" lon="-69.5859600">
    <ele>1406.5</ele>
   </trkpt>
   <trkpt lat="-35.4582790" lon="-69.5859680">
    <ele>1406.6</ele>
   </trkpt>
   <trkpt lat="-35.4583820" lon="-69.5859680">
    <ele>1406.6</ele>
   </trkpt>
   <trkpt lat="-35.4585080" lon="-69.5859600">
    <ele>1406.7</ele>
   </trkpt>
   <trkpt lat="-35.4586180" lon="-69.5859530">
    <ele>1406.7</ele>
   </trkpt>
   <trkpt lat="-35.4587290" lon="-69.5859450">
    <ele>1406.8</ele>
   </trkpt>
   <trkpt lat="-35.4588430" lon="-69.5859300">
    <ele>1406.8</ele>
   </trkpt>
   <trkpt lat="-35.4589460" lon="-69.5859300">
    <ele>1406.9</ele>
   </trkpt>
   <trkpt lat="-35.4590490" lon="-69.5859150">
    <ele>1406.9</ele>
   </trkpt>
   <trkpt lat="-35.4591640" lon="-69.5859300">
    <ele>1407.0</ele>
   </trkpt>
   <trkpt lat="-35.4592670" lon="-69.5859220">
    <ele>1407.0</ele>
   </trkpt>
   <trkpt lat="-35.4593700" lon="-69.5859150">
    <ele>1407.1</ele>
   </trkpt>
   <trkpt lat="-35.4594610" lon="-69.5859150">
    <ele>1407.2</ele>
   </trkpt>
   <trkpt lat="-35.4595570" lon="-69.5859070">
    <ele>1407.2</ele>
   </trkpt>
   <trkpt lat="-35.4596630" lon="-69.5858990">
    <ele>1407.2</ele>
   </trkpt>
   <trkpt lat="-35.4597740" lon="-69.5858920">
    <ele>1407.3</ele>
   </trkpt>
   <trkpt lat="-35.4598770" lon="-69.5858840">
    <ele>1407.3</ele>
   </trkpt>
   <trkpt lat="-35.4600110" lon="-69.5858760">
    <ele>1407.4</ele>
   </trkpt>
   <trkpt lat="-35.4601060" lon="-69.5858690">
    <ele>1407.5</ele>
   </trkpt>
   <trkpt lat="-35.4602090" lon="-69.5858690">
    <ele>1407.5</ele>
   </trkpt>
   <trkpt lat="-35.4603080" lon="-69.5858610">
    <ele>1407.6</ele>
   </trkpt>
   <trkpt lat="-35.4604110" lon="-69.5858610">
    <ele>1407.6</ele>
   </trkpt>
   <trkpt lat="-35.4605030" lon="-69.5858610">
    <ele>1407.7</ele>
   </trkpt>
   <trkpt lat="-35.4606400" lon="-69.5858690">
    <ele>1407.7</ele>
   </trkpt>
   <trkpt lat="-35.4607280" lon="-69.5858690">
    <ele>1407.8</ele>
   </trkpt>
   <trkpt lat="-35.4608570" lon="-69.5858760">
    <ele>1407.9</ele>
   </trkpt>
   <trkpt lat="-35.4609680" lon="-69.5859450">
    <ele>1407.9</ele>
   </trkpt>
   <trkpt lat="-35.4610060" lon="-69.5860520">
    <ele>1407.9</ele>
   </trkpt>
   <trkpt lat="-35.4610060" lon="-69.5861660">
    <ele>1407.8</ele>
   </trkpt>
   <trkpt lat="-35.4610140" lon="-69.5863040">
    <ele>1407.8</ele>
   </trkpt>
   <trkpt lat="-35.4610140" lon="-69.5864410">
    <ele>1407.8</ele>
   </trkpt>
   <trkpt lat="-35.4610210" lon="-69.5865780">
    <ele>1407.9</ele>
   </trkpt>
   <trkpt lat="-35.4610180" lon="-69.5867080">
    <ele>1408.0</ele>
   </trkpt>
   <trkpt lat="-35.4610250" lon="-69.5868380">
    <ele>1408.0</ele>
   </trkpt>
   <trkpt lat="-35.4610290" lon="-69.5869670">
    <ele>1408.1</ele>
   </trkpt>
   <trkpt lat="-35.4610290" lon="-69.5871050">
    <ele>1408.2</ele>
   </trkpt>
   <trkpt lat="-35.4610290" lon="-69.5872420">
    <ele>1408.2</ele>
   </trkpt>
   <trkpt lat="-35.4610290" lon="-69.5873870">
    <ele>1408.3</ele>
   </trkpt>
   <trkpt lat="-35.4610290" lon="-69.5875090">
    <ele>1408.3</ele>
   </trkpt>
   <trkpt lat="-35.4610290" lon="-69.5876310">
    <ele>1408.4</ele>
   </trkpt>
   <trkpt lat="-35.4610370" lon="-69.5877610">
    <ele>1408.5</ele>
   </trkpt>
   <trkpt lat="-35.4610400" lon="-69.5878980">
    <ele>1408.7</ele>
   </trkpt>
   <trkpt lat="-35.4610400" lon="-69.5880280">
    <ele>1408.7</ele>
   </trkpt>
   <trkpt lat="-35.4610400" lon="-69.5881580">
    <ele>1408.8</ele>
   </trkpt>
   <trkpt lat="-35.4610440" lon="-69.5882720">
    <ele>1408.8</ele>
   </trkpt>
   <trkpt lat="-35.4610480" lon="-69.5884020">
    <ele>1408.9</ele>
   </trkpt>
   <trkpt lat="-35.4610600" lon="-69.5885470">
    <ele>1409.0</ele>
   </trkpt>
   <trkpt lat="-35.4610630" lon="-69.5886920">
    <ele>1409.1</ele>
   </trkpt>
   <trkpt lat="-35.4610630" lon="-69.5888290">
    <ele>1409.1</ele>
   </trkpt>
   <trkpt lat="-35.4610710" lon="-69.5889820">
    <ele>1409.2</ele>
   </trkpt>
   <trkpt lat="-35.4610790" lon="-69.5891110">
    <ele>1409.2</ele>
   </trkpt>
   <trkpt lat="-35.4610820" lon="-69.5892490">
    <ele>1409.2</ele>
   </trkpt>
   <trkpt lat="-35.4610860" lon="-69.5893940">
    <ele>1409.3</ele>
   </trkpt>
   <trkpt lat="-35.4610900" lon="-69.5895540">
    <ele>1409.4</ele>
   </trkpt>
   <trkpt lat="-35.4610980" lon="-69.5897060">
    <ele>1409.4</ele>
   </trkpt>
   <trkpt lat="-35.4611020" lon="-69.5898510">
    <ele>1409.5</ele>
   </trkpt>
   <trkpt lat="-35.4611090" lon="-69.5900040">
    <ele>1409.6</ele>
   </trkpt>
   <trkpt lat="-35.4611130" lon="-69.5901570">
    <ele>1409.7</ele>
   </trkpt>
   <trkpt lat="-35.4611170" lon="-69.5903170">
    <ele>1409.7</ele>
   </trkpt>
   <trkpt lat="-35.4611210" lon="-69.5904850">
    <ele>1409.7</ele>
   </trkpt>
   <trkpt lat="-35.4611280" lon="-69.5906600">
    <ele>1409.7</ele>
   </trkpt>
   <trkpt lat="-35.4611240" lon="-69.5908200">
    <ele>1409.7</ele>
   </trkpt>
   <trkpt lat="-35.4611240" lon="-69.5909730">
    <ele>1409.8</ele>
   </trkpt>
   <trkpt lat="-35.4611280" lon="-69.5911250">
    <ele>1409.9</ele>
   </trkpt>
   <trkpt lat="-35.4611400" lon="-69.5912860">
    <ele>1409.9</ele>
   </trkpt>
   <trkpt lat="-35.4611550" lon="-69.5914380">
    <ele>1410.0</ele>
   </trkpt>
   <trkpt lat="-35.4611590" lon="-69.5915910">
    <ele>1410.2</ele>
   </trkpt>
   <trkpt lat="-35.4611590" lon="-69.5917430">
    <ele>1410.3</ele>
   </trkpt>
   <trkpt lat="-35.4611510" lon="-69.5919040">
    <ele>1410.5</ele>
   </trkpt>
   <trkpt lat="-35.4611590" lon="-69.5920490">
    <ele>1410.6</ele>
   </trkpt>
   <trkpt lat="-35.4611590" lon="-69.5921860">
    <ele>1410.7</ele>
   </trkpt>
   <trkpt lat="-35.4611660" lon="-69.5923310">
    <ele>1410.8</ele>
   </trkpt>
   <trkpt lat="-35.4611700" lon="-69.5924610">
    <ele>1411.0</ele>
   </trkpt>
   <trkpt lat="-35.4611700" lon="-69.5925980">
    <ele>1411.1</ele>
   </trkpt>
   <trkpt lat="-35.4611700" lon="-69.5927660">
    <ele>1411.2</ele>
   </trkpt>
   <trkpt lat="-35.4611780" lon="-69.5928800">
    <ele>1411.2</ele>
   </trkpt>
   <trkpt lat="-35.4611780" lon="-69.5930100">
    <ele>1411.3</ele>
   </trkpt>
   <trkpt lat="-35.4611820" lon="-69.5931240">
    <ele>1411.4</ele>
   </trkpt>
   <trkpt lat="-35.4611850" lon="-69.5932390">
    <ele>1411.5</ele>
   </trkpt>
   <trkpt lat="-35.4611970" lon="-69.5933610">
    <ele>1411.6</ele>
   </trkpt>
   <trkpt lat="-35.4612010" lon="-69.5934830">
    <ele>1411.7</ele>
   </trkpt>
   <trkpt lat="-35.4612050" lon="-69.5935970">
    <ele>1411.8</ele>
   </trkpt>
   <trkpt lat="-35.4612080" lon="-69.5937270">
    <ele>1411.9</ele>
   </trkpt>
   <trkpt lat="-35.4612240" lon="-69.5938640">
    <ele>1412.0</ele>
   </trkpt>
   <trkpt lat="-35.4612240" lon="-69.5939870">
    <ele>1412.2</ele>
   </trkpt>
   <trkpt lat="-35.4612160" lon="-69.5941090">
    <ele>1412.4</ele>
   </trkpt>
   <trkpt lat="-35.4612080" lon="-69.5942460">
    <ele>1412.5</ele>
   </trkpt>
   <trkpt lat="-35.4612200" lon="-69.5943760">
    <ele>1412.7</ele>
   </trkpt>
   <trkpt lat="-35.4612200" lon="-69.5945050">
    <ele>1412.8</ele>
   </trkpt>
   <trkpt lat="-35.4612200" lon="-69.5946350">
    <ele>1412.9</ele>
   </trkpt>
   <trkpt lat="-35.4612240" lon="-69.5947570">
    <ele>1413.0</ele>
   </trkpt>
   <trkpt lat="-35.4612310" lon="-69.5948870">
    <ele>1413.2</ele>
   </trkpt>
   <trkpt lat="-35.4612390" lon="-69.5950550">
    <ele>1413.4</ele>
   </trkpt>
   <trkpt lat="-35.4612500" lon="-69.5952150">
    <ele>1413.6</ele>
   </trkpt>
   <trkpt lat="-35.4612580" lon="-69.5953370">
    <ele>1413.7</ele>
   </trkpt>
   <trkpt lat="-35.4612580" lon="-69.5954590">
    <ele>1413.8</ele>
   </trkpt>
   <trkpt lat="-35.4612770" lon="-69.5955730">
    <ele>1413.8</ele>
   </trkpt>
   <trkpt lat="-35.4612770" lon="-69.5957260">
    <ele>1413.9</ele>
   </trkpt>
   <trkpt lat="-35.4612730" lon="-69.5958560">
    <ele>1414.1</ele>
   </trkpt>
   <trkpt lat="-35.4612850" lon="-69.5959930">
    <ele>1414.2</ele>
   </trkpt>
   <trkpt lat="-35.4612810" lon="-69.5961380">
    <ele>1414.3</ele>
   </trkpt>
   <trkpt lat="-35.4612920" lon="-69.5962750">
    <ele>1414.4</ele>
   </trkpt>
   <trkpt lat="-35.4612960" lon="-69.5964130">
    <ele>1414.6</ele>
   </trkpt>
   <trkpt lat="-35.4613040" lon="-69.5965350">
    <ele>1414.7</ele>
   </trkpt>
   <trkpt lat="-35.4613150" lon="-69.5966570">
    <ele>1414.8</ele>
   </trkpt>
   <trkpt lat="-35.4613420" lon="-69.5967790">
    <ele>1414.9</ele>
   </trkpt>
   <trkpt lat="-35.4613420" lon="-69.5969390">
    <ele>1415.0</ele>
   </trkpt>
   <trkpt lat="-35.4613420" lon="-69.5970990">
    <ele>1415.2</ele>
   </trkpt>
   <trkpt lat="-35.4613460" lon="-69.5972210">
    <ele>1415.4</ele>
   </trkpt>
   <trkpt lat="-35.4613420" lon="-69.5973510">
    <ele>1415.5</ele>
   </trkpt>
   <trkpt lat="-35.4613380" lon="-69.5974730">
    <ele>1415.6</ele>
   </trkpt>
   <trkpt lat="-35.4613420" lon="-69.5976260">
    <ele>1415.7</ele>
   </trkpt>
   <trkpt lat="-35.4613380" lon="-69.5977400">
    <ele>1415.9</ele>
   </trkpt>
   <trkpt lat="-35.4613340" lon="-69.5978930">
    <ele>1416.2</ele>
   </trkpt>
   <trkpt lat="-35.4613230" lon="-69.5980220">
    <ele>1416.4</ele>
   </trkpt>
   <trkpt lat="-35.4613190" lon="-69.5981370">
    <ele>1416.5</ele>
   </trkpt>
   <trkpt lat="-35.4613110" lon="-69.5982740">
    <ele>1416.5</ele>
   </trkpt>
   <trkpt lat="-35.4613110" lon="-69.5984120">
    <ele>1416.6</ele>
   </trkpt>
   <trkpt lat="-35.4613080" lon="-69.5985570">
    <ele>1416.7</ele>
   </trkpt>
   <trkpt lat="-35.4613270" lon="-69.5987170">
    <ele>1416.7</ele>
   </trkpt>
   <trkpt lat="-35.4613340" lon="-69.5988390">
    <ele>1416.8</ele>
   </trkpt>
   <trkpt lat="-35.4613420" lon="-69.5990070">
    <ele>1416.8</ele>
   </trkpt>
   <trkpt lat="-35.4613420" lon="-69.5991290">
    <ele>1416.9</ele>
   </trkpt>
   <trkpt lat="-35.4613460" lon="-69.5992430">
    <ele>1416.9</ele>
   </trkpt>
   <trkpt lat="-35.4613530" lon="-69.5993580">
    <ele>1417.0</ele>
   </trkpt>
   <trkpt lat="-35.4613650" lon="-69.5994870">
    <ele>1417.1</ele>
   </trkpt>
   <trkpt lat="-35.4613690" lon="-69.5996020">
    <ele>1417.1</ele>
   </trkpt>
   <trkpt lat="-35.4613650" lon="-69.5997160">
    <ele>1417.2</ele>
   </trkpt>
   <trkpt lat="-35.4613690" lon="-69.5998310">
    <ele>1417.2</ele>
   </trkpt>
   <trkpt lat="-35.4613720" lon="-69.5999530">
    <ele>1417.3</ele>
   </trkpt>
   <trkpt lat="-35.4613800" lon="-69.6001050">
    <ele>1417.5</ele>
   </trkpt>
   <trkpt lat="-35.4613760" lon="-69.6002200">
    <ele>1417.6</ele>
   </trkpt>
   <trkpt lat="-35.4613880" lon="-69.6003420">
    <ele>1417.7</ele>
   </trkpt>
   <trkpt lat="-35.4613910" lon="-69.6004560">
    <ele>1417.8</ele>
   </trkpt>
   <trkpt lat="-35.4613880" lon="-69.6005710">
    <ele>1417.9</ele>
   </trkpt>
   <trkpt lat="-35.4613800" lon="-69.6006850">
    <ele>1418.0</ele>
   </trkpt>
   <trkpt lat="-35.4613800" lon="-69.6008000">
    <ele>1418.2</ele>
   </trkpt>
   <trkpt lat="-35.4613800" lon="-69.6009220">
    <ele>1418.3</ele>
   </trkpt>
   <trkpt lat="-35.4613840" lon="-69.6010440">
    <ele>1418.6</ele>
   </trkpt>
   <trkpt lat="-35.4613840" lon="-69.6011730">
    <ele>1418.8</ele>
   </trkpt>
   <trkpt lat="-35.4613840" lon="-69.6012950">
    <ele>1419.0</ele>
   </trkpt>
   <trkpt lat="-35.4613840" lon="-69.6014630">
    <ele>1419.3</ele>
   </trkpt>
   <trkpt lat="-35.4613840" lon="-69.6015780">
    <ele>1419.4</ele>
   </trkpt>
   <trkpt lat="-35.4613800" lon="-69.6017380">
    <ele>1419.7</ele>
   </trkpt>
   <trkpt lat="-35.4613910" lon="-69.6018750">
    <ele>1419.9</ele>
   </trkpt>
   <trkpt lat="-35.4614260" lon="-69.6020200">
    <ele>1420.1</ele>
   </trkpt>
   <trkpt lat="-35.4614560" lon="-69.6021350">
    <ele>1420.2</ele>
   </trkpt>
   <trkpt lat="-35.4615630" lon="-69.6022030">
    <ele>1420.3</ele>
   </trkpt>
   <trkpt lat="-35.4616510" lon="-69.6021960">
    <ele>1420.3</ele>
   </trkpt>
   <trkpt lat="-35.4617540" lon="-69.6021800">
    <ele>1420.4</ele>
   </trkpt>
   <trkpt lat="-35.4618570" lon="-69.6021650">
    <ele>1420.4</ele>
   </trkpt>
   <trkpt lat="-35.4619750" lon="-69.6021650">
    <ele>1420.4</ele>
   </trkpt>
   <trkpt lat="-35.4620930" lon="-69.6021650">
    <ele>1420.5</ele>
   </trkpt>
   <trkpt lat="-35.4622120" lon="-69.6021580">
    <ele>1420.6</ele>
   </trkpt>
   <trkpt lat="-35.4623220" lon="-69.6021420">
    <ele>1420.8</ele>
   </trkpt>
   <trkpt lat="-35.4624290" lon="-69.6021270">
    <ele>1420.9</ele>
   </trkpt>
   <trkpt lat="-35.4625240" lon="-69.6021120">
    <ele>1421.0</ele>
   </trkpt>
   <trkpt lat="-35.4626120" lon="-69.6020970">
    <ele>1421.1</ele>
   </trkpt>
   <trkpt lat="-35.4627110" lon="-69.6020890">
    <ele>1421.3</ele>
   </trkpt>
   <trkpt lat="-35.4628070" lon="-69.6020810">
    <ele>1421.3</ele>
   </trkpt>
   <trkpt lat="-35.4629100" lon="-69.6020740">
    <ele>1421.4</ele>
   </trkpt>
   <trkpt lat="-35.4630050" lon="-69.6020810">
    <ele>1421.5</ele>
   </trkpt>
   <trkpt lat="-35.4631040" lon="-69.6020740">
    <ele>1421.7</ele>
   </trkpt>
   <trkpt lat="-35.4632110" lon="-69.6020580">
    <ele>1421.8</ele>
   </trkpt>
   <trkpt lat="-35.4633140" lon="-69.6020660">
    <ele>1421.9</ele>
   </trkpt>
   <trkpt lat="-35.4634090" lon="-69.6020510">
    <ele>1422.0</ele>
   </trkpt>
   <trkpt lat="-35.4635090" lon="-69.6020430">
    <ele>1422.2</ele>
   </trkpt>
   <trkpt lat="-35.4636040" lon="-69.6020360">
    <ele>1422.3</ele>
   </trkpt>
   <trkpt lat="-35.4636920" lon="-69.6020510">
    <ele>1422.5</ele>
   </trkpt>
   <trkpt lat="-35.4637870" lon="-69.6020580">
    <ele>1422.6</ele>
   </trkpt>
   <trkpt lat="-35.4638940" lon="-69.6020660">
    <ele>1422.7</ele>
   </trkpt>
   <trkpt lat="-35.4639970" lon="-69.6020740">
    <ele>1422.7</ele>
   </trkpt>
   <trkpt lat="-35.4640920" lon="-69.6020660">
    <ele>1422.8</ele>
   </trkpt>
   <trkpt lat="-35.4641950" lon="-69.6020580">
    <ele>1422.9</ele>
   </trkpt>
   <trkpt lat="-35.4642980" lon="-69.6020580">
    <ele>1423.0</ele>
   </trkpt>
   <trkpt lat="-35.4644010" lon="-69.6020430">
    <ele>1423.2</ele>
   </trkpt>
   <trkpt lat="-35.4645000" lon="-69.6020430">
    <ele>1423.4</ele>
   </trkpt>
   <trkpt lat="-35.4646000" lon="-69.6020360">
    <ele>1423.5</ele>
   </trkpt>
   <trkpt lat="-35.4647060" lon="-69.6020360">
    <ele>1423.6</ele>
   </trkpt>
   <trkpt lat="-35.4648090" lon="-69.6020360">
    <ele>1423.7</ele>
   </trkpt>
   <trkpt lat="-35.4649200" lon="-69.6020430">
    <ele>1423.8</ele>
   </trkpt>
   <trkpt lat="-35.4650270" lon="-69.6020360">
    <ele>1423.9</ele>
   </trkpt>
   <trkpt lat="-35.4651220" lon="-69.6020280">
    <ele>1424.0</ele>
   </trkpt>
   <trkpt lat="-35.4652180" lon="-69.6020200">
    <ele>1424.1</ele>
   </trkpt>
   <trkpt lat="-35.4653170" lon="-69.6020130">
    <ele>1424.2</ele>
   </trkpt>
   <trkpt lat="-35.4654200" lon="-69.6020130">
    <ele>1424.3</ele>
   </trkpt>
   <trkpt lat="-35.4655110" lon="-69.6020050">
    <ele>1424.5</ele>
   </trkpt>
   <trkpt lat="-35.4656030" lon="-69.6019900">
    <ele>1424.6</ele>
   </trkpt>
   <trkpt lat="-35.4657060" lon="-69.6019970">
    <ele>1424.8</ele>
   </trkpt>
   <trkpt lat="-35.4658050" lon="-69.6020050">
    <ele>1424.9</ele>
   </trkpt>
   <trkpt lat="-35.4659310" lon="-69.6019970">
    <ele>1425.2</ele>
   </trkpt>
   <trkpt lat="-35.4660340" lon="-69.6019520">
    <ele>1425.3</ele>
   </trkpt>
   <trkpt lat="-35.4661220" lon="-69.6018370">
    <ele>1425.2</ele>
   </trkpt>
   <trkpt lat="-35.4661370" lon="-69.6017230">
    <ele>1425.0</ele>
   </trkpt>
   <trkpt lat="-35.4661370" lon="-69.6016010">
    <ele>1424.8</ele>
   </trkpt>
   <trkpt lat="-35.4661410" lon="-69.6014710">
    <ele>1424.5</ele>
   </trkpt>
   <trkpt lat="-35.4661410" lon="-69.6013410">
    <ele>1424.3</ele>
   </trkpt>
   <trkpt lat="-35.4661370" lon="-69.6012270">
    <ele>1424.1</ele>
   </trkpt>
   <trkpt lat="-35.4661370" lon="-69.6011050">
    <ele>1423.9</ele>
   </trkpt>
   <trkpt lat="-35.4661410" lon="-69.6009670">
    <ele>1423.7</ele>
   </trkpt>
   <trkpt lat="-35.4661370" lon="-69.6008380">
    <ele>1423.5</ele>
   </trkpt>
   <trkpt lat="-35.4661330" lon="-69.6007000">
    <ele>1423.3</ele>
   </trkpt>
   <trkpt lat="-35.4661330" lon="-69.6005710">
    <ele>1423.1</ele>
   </trkpt>
   <trkpt lat="-35.4661290" lon="-69.6004330">
    <ele>1422.9</ele>
   </trkpt>
   <trkpt lat="-35.4661220" lon="-69.6002880">
    <ele>1422.7</ele>
   </trkpt>
   <trkpt lat="-35.4661140" lon="-69.6001510">
    <ele>1422.4</ele>
   </trkpt>
   <trkpt lat="-35.4661060" lon="-69.5999980">
    <ele>1422.2</ele>
   </trkpt>
   <trkpt lat="-35.4661030" lon="-69.5998460">
    <ele>1422.0</ele>
   </trkpt>
   <trkpt lat="-35.4660950" lon="-69.5997010">
    <ele>1421.8</ele>
   </trkpt>
   <trkpt lat="-35.4660990" lon="-69.5995560">
    <ele>1421.6</ele>
   </trkpt>
   <trkpt lat="-35.4660950" lon="-69.5994030">
    <ele>1421.4</ele>
   </trkpt>
   <trkpt lat="-35.4660840" lon="-69.5992660">
    <ele>1421.3</ele>
   </trkpt>
   <trkpt lat="-35.4660840" lon="-69.5991360">
    <ele>1421.1</ele>
   </trkpt>
   <trkpt lat="-35.4660800" lon="-69.5989910">
    <ele>1421.0</ele>
   </trkpt>
   <trkpt lat="-35.4660680" lon="-69.5988310">
    <ele>1420.8</ele>
   </trkpt>
   <trkpt lat="-35.4660450" lon="-69.5986630">
    <ele>1420.6</ele>
   </trkpt>
   <trkpt lat="-35.4660260" lon="-69.5985180">
    <ele>1420.5</ele>
   </trkpt>
   <trkpt lat="-35.4660190" lon="-69.5983660">
    <ele>1420.3</ele>
   </trkpt>
   <trkpt lat="-35.4660190" lon="-69.5982130">
    <ele>1420.2</ele>
   </trkpt>
   <trkpt lat="-35.4660190" lon="-69.5980610">
    <ele>1420.1</ele>
   </trkpt>
   <trkpt lat="-35.4660070" lon="-69.5979160">
    <ele>1420.1</ele>
   </trkpt>
   <trkpt lat="-35.4660000" lon="-69.5977710">
    <ele>1419.9</ele>
   </trkpt>
   <trkpt lat="-35.4659960" lon="-69.5976260">
    <ele>1419.8</ele>
   </trkpt>
   <trkpt lat="-35.4659880" lon="-69.5974810">
    <ele>1419.6</ele>
   </trkpt>
   <trkpt lat="-35.4659880" lon="-69.5973280">
    <ele>1419.4</ele>
   </trkpt>
   <trkpt lat="-35.4659880" lon="-69.5971680">
    <ele>1419.2</ele>
   </trkpt>
   <trkpt lat="-35.4659880" lon="-69.5970080">
    <ele>1419.0</ele>
   </trkpt>
   <trkpt lat="-35.4659920" lon="-69.5968480">
    <ele>1418.7</ele>
   </trkpt>
   <trkpt lat="-35.4659920" lon="-69.5966800">
    <ele>1418.3</ele>
   </trkpt>
   <trkpt lat="-35.4659920" lon="-69.5965350">
    <ele>1418.1</ele>
   </trkpt>
   <trkpt lat="-35.4659840" lon="-69.5963970">
    <ele>1418.0</ele>
   </trkpt>
   <trkpt lat="-35.4659880" lon="-69.5962520">
    <ele>1417.9</ele>
   </trkpt>
   <trkpt lat="-35.4659690" lon="-69.5960920">
    <ele>1417.7</ele>
   </trkpt>
   <trkpt lat="-35.4659650" lon="-69.5959240">
    <ele>1417.5</ele>
   </trkpt>
   <trkpt lat="-35.4659730" lon="-69.5957640">
    <ele>1417.4</ele>
   </trkpt>
   <trkpt lat="-35.4659690" lon="-69.5956120">
    <ele>1417.3</ele>
   </trkpt>
   <trkpt lat="-35.4659610" lon="-69.5954440">
    <ele>1417.1</ele>
   </trkpt>
   <trkpt lat="-35.4659580" lon="-69.5952760">
    <ele>1417.0</ele>
   </trkpt>
   <trkpt lat="-35.4659460" lon="-69.5951080">
    <ele>1416.9</ele>
   </trkpt>
   <trkpt lat="-35.4659390" lon="-69.5949400">
    <ele>1416.8</ele>
   </trkpt>
   <trkpt lat="-35.4659390" lon="-69.5947800">
    <ele>1416.7</ele>
   </trkpt>
   <trkpt lat="-35.4659310" lon="-69.5946430">
    <ele>1416.7</ele>
   </trkpt>
   <trkpt lat="-35.4659270" lon="-69.5945050">
    <ele>1416.6</ele>
   </trkpt>
   <trkpt lat="-35.4659230" lon="-69.5943600">
    <ele>1416.5</ele>
   </trkpt>
   <trkpt lat="-35.4659230" lon="-69.5942080">
    <ele>1416.4</ele>
   </trkpt>
   <trkpt lat="-35.4659230" lon="-69.5940550">
    <ele>1416.2</ele>
   </trkpt>
   <trkpt lat="-35.4659160" lon="-69.5939030">
    <ele>1416.0</ele>
   </trkpt>
   <trkpt lat="-35.4659120" lon="-69.5937420">
    <ele>1415.9</ele>
   </trkpt>
   <trkpt lat="-35.4659120" lon="-69.5935820">
    <ele>1415.8</ele>
   </trkpt>
   <trkpt lat="-35.4659230" lon="-69.5934220">
    <ele>1415.7</ele>
   </trkpt>
   <trkpt lat="-35.4659270" lon="-69.5932620">
    <ele>1415.6</ele>
   </trkpt>
   <trkpt lat="-35.4659230" lon="-69.5931170">
    <ele>1415.6</ele>
   </trkpt>
   <trkpt lat="-35.4659120" lon="-69.5929720">
    <ele>1415.4</ele>
   </trkpt>
   <trkpt lat="-35.4659190" lon="-69.5928420">
    <ele>1415.3</ele>
   </trkpt>
   <trkpt lat="-35.4659190" lon="-69.5926900">
    <ele>1415.1</ele>
   </trkpt>
   <trkpt lat="-35.4659160" lon="-69.5925290">
    <ele>1415.0</ele>
   </trkpt>
   <trkpt lat="-35.4659080" lon="-69.5923770">
    <ele>1414.8</ele>
   </trkpt>
   <trkpt lat="-35.4659160" lon="-69.5922320">
    <ele>1414.7</ele>
   </trkpt>
   <trkpt lat="-35.4659160" lon="-69.5920790">
    <ele>1414.5</ele>
   </trkpt>
   <trkpt lat="-35.4659040" lon="-69.5919340">
    <ele>1414.4</ele>
   </trkpt>
   <trkpt lat="-35.4659000" lon="-69.5917740">
    <ele>1414.3</ele>
   </trkpt>
   <trkpt lat="-35.4658970" lon="-69.5916210">
    <ele>1414.2</ele>
   </trkpt>
   <trkpt lat="-35.4658890" lon="-69.5914540">
    <ele>1414.1</ele>
   </trkpt>
   <trkpt lat="-35.4658850" lon="-69.5913010">
    <ele>1414.1</ele>
   </trkpt>
   <trkpt lat="-35.4658930" lon="-69.5911640">
    <ele>1414.1</ele>
   </trkpt>
   <trkpt lat="-35.4658930" lon="-69.5910340">
    <ele>1414.1</ele>
   </trkpt>
   <trkpt lat="-35.4658850" lon="-69.5909120">
    <ele>1414.1</ele>
   </trkpt>
   <trkpt lat="-35.4659120" lon="-69.5908050">
    <ele>1414.1</ele>
   </trkpt>
   <trkpt lat="-35.4660030" lon="-69.5907900">
    <ele>1414.4</ele>
   </trkpt>
   <trkpt lat="-35.4661100" lon="-69.5907820">
    <ele>1414.8</ele>
   </trkpt>
   <trkpt lat="-35.4662020" lon="-69.5907970">
    <ele>1415.2</ele>
   </trkpt>
   <trkpt lat="-35.4663010" lon="-69.5908050">
    <ele>1415.7</ele>
   </trkpt>
   <trkpt lat="-35.4664230" lon="-69.5907900">
    <ele>1416.0</ele>
   </trkpt>
   <trkpt lat="-35.4665110" lon="-69.5907820">
    <ele>1415.4</ele>
   </trkpt>
   <trkpt lat="-35.4666020" lon="-69.5907750">
    <ele>1414.9</ele>
   </trkpt>
   <trkpt lat="-35.4666940" lon="-69.5907750">
    <ele>1414.7</ele>
   </trkpt>
   <trkpt lat="-35.4668160" lon="-69.5907750">
    <ele>1414.8</ele>
   </trkpt>
   <trkpt lat="-35.4669340" lon="-69.5907820">
    <ele>1414.7</ele>
   </trkpt>
   <trkpt lat="-35.4670600" lon="-69.5907970">
    <ele>1414.6</ele>
   </trkpt>
   <trkpt lat="-35.4671820" lon="-69.5908360">
    <ele>1414.5</ele>
   </trkpt>
   <trkpt lat="-35.4672200" lon="-69.5909650">
    <ele>1415.7</ele>
   </trkpt>
   <trkpt lat="-35.4672130" lon="-69.5910950">
    <ele>1416.9</ele>
   </trkpt>
  </trkseg>
 </trk>
</gpx>
